{
  "type": "FeatureCollection",
  "features": [
    {
      "type": "Feature",
      "properties": {},
      "geometry": {
        "type": "Polygon",
        "coordinates": [
          [
            [
              146.6650808,
              43.5574914
            ],
            [
              146.2869273,
              43.8527293
            ],
            [
              145.523057,
              43.5328226
            ],
            [
              145.197845,
              43.8309097
            ],
            [
              146.5058264,
              45.3072975
            ],
            [
              149.087673,
              46.0945187
            ],
            [
              149.4343447,
              45.001816
            ],
            [
              149.4343447,
              45.001816
            ],
            [
              146.6650808,
              43.5574914
            ]
          ]
        ]
      }
    },
    {
      "type": "Feature",
      "properties": {},
      "geometry": {
        "type": "Polygon",
        "coordinates": [
          [
            [
              154.0245146,
              24.1954933
            ],
            [
              153.8635331,
              24.2425486
            ],
            [
              153.8594053,
              24.4118035
            ],
            [
              154.049281,
              24.507614
            ],
            [
              154.049281,
              24.507614
            ],
            [
              154.111197,
              24.3497696
            ],
            [
              154.0245146,
              24.1954933
            ]
          ]
        ]
      }
    },
    {
      "type": "Feature",
      "properties": {},
      "geometry": {
        "type": "Polygon",
        "coordinates": [
          [
            [
              123.2792331,
              25.6055807
            ],
            [
              123.7663054,
              25.436094
            ],
            [
              124.1316096,
              25.9661014
            ],
            [
              123.7147087,
              26.0940629
            ],
            [
              123.2441474,
              26.005061
            ],
            [
              123.2792331,
              25.6055807
            ]
          ]
        ]
      }
    },
    {
      "type": "Feature",
      "properties": {},
      "geometry": {
        "type": "Polygon",
        "coordinates": [
          [
            [
              131.9479452,
              37.1410585
            ],
            [
              131.7129453,
              37.1580866
            ],
            [
              131.7556726,
              37.4435854
            ],
            [
              131.9863998,
              37.467328
            ],
            [
              132.1252634,
              37.2601749
            ],
            [
              131.9479452,
              37.1410585
            ]
          ]
        ]
      }
    }
  ]
}
