{"type":"FeatureCollection", "features": [
{"type":"Feature","geometry":{"type":"Polygon","coordinates":[[[135.91944,35.05133],[135.92067,35.05172],[135.92389,35.05627],[135.92907,35.0579],[135.92991,35.06033],[135.92968,35.06341],[135.93497,35.07018],[135.93329,35.07147],[135.93173,35.07595],[135.94187,35.07491],[135.94198,35.07401],[135.93825,35.07154],[135.94485,35.07225],[135.94797,35.07715],[135.94688,35.07868],[135.94614,35.08309],[135.94646,35.08544],[135.94146,35.08701],[135.94035,35.09118],[135.93673,35.09328],[135.94319,35.11429],[135.94402,35.11534],[135.94338,35.11856],[135.94162,35.11912],[135.9442,35.12336],[135.94838,35.12696],[135.95223,35.12756],[135.95868,35.12566],[135.96295,35.1219],[135.97074,35.12111],[135.972,35.12169],[135.9806,35.13055],[135.9794,35.13551],[135.98259,35.13953],[135.983,35.14122],[135.98765,35.14416],[135.99665,35.14068],[135.99676,35.13997],[136.00154,35.13825],[136.00037,35.13755],[136.00597,35.13565],[136.0121,35.13608],[136.01569,35.14093],[136.0155,35.14218],[136.0182,35.14564],[136.02018,35.14673],[136.02827,35.14709],[136.03403,35.14554],[136.03874,35.14525],[136.04045,35.14332],[136.044,35.14206],[136.05199,35.14251],[136.05897,35.14408],[136.06406,35.14927],[136.06617,35.15314],[136.06466,35.15699],[136.06209,35.15824],[136.06086,35.1575],[136.05829,35.16212],[136.05835,35.1656],[136.05937,35.16722],[136.05891,35.17124],[136.0628,35.17429],[136.06303,35.17729],[136.06209,35.18074],[136.06599,35.18179],[136.0699,35.18949],[136.07478,35.1915],[136.07865,35.18957],[136.08276,35.18962],[136.0846,35.19041],[136.08824,35.18972],[136.09072,35.19275],[136.09323,35.19304],[136.0932,35.19516],[136.08989,35.19608],[136.09013,35.19794],[136.08363,35.1985],[136.08461,35.20287],[136.08688,35.20297],[136.09086,35.20533],[136.09277,35.20117],[136.09639,35.20063],[136.10447,35.20254],[136.1088,35.20454],[136.11055,35.20759],[136.10901,35.21332],[136.10906,35.21566],[136.11165,35.21603],[136.11332,35.21778],[136.1157,35.217],[136.11996,35.21712],[136.12777,35.21838],[136.14258,35.22238],[136.15108,35.22615],[136.15404,35.22956],[136.15719,35.23196],[136.16228,35.23417],[136.18909,35.24682],[136.1958,35.25068],[136.20381,35.25458],[136.2097,35.25816],[136.21415,35.2619],[136.214,35.26352],[136.2181,35.26637],[136.22677,35.27005],[136.23405,35.27481],[136.23877,35.2772],[136.24419,35.28152],[136.24634,35.28549],[136.24985,35.28752],[136.25487,35.29209],[136.25736,35.29535],[136.25533,35.29607],[136.25331,35.3004],[136.25926,35.30681],[136.2598,35.30894],[136.26641,35.31719],[136.26802,35.31995],[136.26718,35.32042],[136.26921,35.32368],[136.27047,35.32776],[136.26839,35.3291],[136.27052,35.33158],[136.2742,35.33754],[136.27654,35.34288],[136.27723,35.34595],[136.27732,35.35214],[136.27785,35.35389],[136.2776,35.36059],[136.2766,35.36427],[136.2742,35.36544],[136.27088,35.37068],[136.26628,35.374],[136.2635,35.37243],[136.26066,35.37397],[136.26045,35.37655],[136.25783,35.37815],[136.25694,35.3803],[136.25375,35.38261],[136.24815,35.38389],[136.24485,35.38655],[136.23846,35.38608],[136.2273,35.38797],[136.22656,35.38713],[136.21916,35.38626],[136.21637,35.38758],[136.21811,35.39017],[136.21431,35.38831],[136.21702,35.39331],[136.21705,35.39804],[136.21502,35.40287],[136.20964,35.40998],[136.20545,35.41238],[136.20258,35.4153],[136.20184,35.41494],[136.19578,35.42448],[136.19675,35.43243],[136.19583,35.43437],[136.1934,35.43542],[136.19387,35.43664],[136.18862,35.4416],[136.18923,35.44625],[136.187,35.44775],[136.18834,35.45001],[136.19607,35.45198],[136.19844,35.45366],[136.19859,35.4591],[136.19518,35.46191],[136.19428,35.46757],[136.19228,35.47005],[136.19326,35.47406],[136.19261,35.47586],[136.18881,35.47955],[136.19105,35.48161],[136.19164,35.48533],[136.19013,35.48693],[136.19183,35.48837],[136.19093,35.49158],[136.19138,35.49638],[136.18387,35.50354],[136.18049,35.50384],[136.17819,35.50184],[136.17708,35.49928],[136.17397,35.49931],[136.16946,35.50352],[136.1693,35.50746],[136.1664,35.51429],[136.16353,35.51483],[136.16305,35.51303],[136.16025,35.51258],[136.16315,35.50683],[136.1621,35.5035],[136.16427,35.50191],[136.16247,35.49716],[136.15928,35.49589],[136.1593,35.49366],[136.1621,35.48982],[136.16178,35.48738],[136.15627,35.48452],[136.15362,35.47862],[136.15033,35.47743],[136.14802,35.47432],[136.14983,35.47216],[136.14823,35.46826],[136.15031,35.46399],[136.15393,35.46338],[136.15877,35.46363],[136.15805,35.46022],[136.15516,35.45818],[136.1543,35.45634],[136.15558,35.45383],[136.15455,35.45204],[136.15142,35.45032],[136.15232,35.44756],[136.15055,35.44332],[136.14785,35.44207],[136.14629,35.44297],[136.141,35.44392],[136.14016,35.44538],[136.14254,35.44742],[136.14389,35.45084],[136.14397,35.45738],[136.14164,35.45863],[136.13454,35.45784],[136.12884,35.45571],[136.12751,35.45664],[136.12933,35.45805],[136.1283,35.45935],[136.12524,35.46028],[136.12423,35.46162],[136.12592,35.46495],[136.12298,35.46899],[136.12473,35.47348],[136.12423,35.47643],[136.12709,35.47764],[136.13112,35.47673],[136.13267,35.48171],[136.13221,35.48385],[136.127,35.48506],[136.12552,35.48279],[136.12326,35.48291],[136.12221,35.48706],[136.11875,35.48706],[136.11368,35.48332],[136.11261,35.47726],[136.11077,35.47468],[136.11051,35.4705],[136.10739,35.46672],[136.10597,35.45987],[136.10422,35.45612],[136.1014,35.45229],[136.09905,35.45094],[136.09212,35.44829],[136.08745,35.44889],[136.08256,35.45548],[136.08064,35.46053],[136.08083,35.46222],[136.07852,35.46449],[136.07184,35.46297],[136.06465,35.45804],[136.06041,35.45385],[136.05997,35.44897],[136.05745,35.44923],[136.05673,35.44785],[136.05252,35.44706],[136.04817,35.44351],[136.04431,35.4391],[136.04074,35.43254],[136.04325,35.42718],[136.04529,35.42425],[136.04648,35.41765],[136.04554,35.40949],[136.04748,35.40666],[136.04429,35.40563],[136.04054,35.40556],[136.03793,35.40276],[136.03546,35.39792],[136.03405,35.39111],[136.03452,35.38787],[136.03733,35.38324],[136.03558,35.37978],[136.03793,35.37705],[136.045,35.37636],[136.04491,35.37557],[136.04957,35.37184],[136.05021,35.36962],[136.05473,35.36559],[136.05658,35.3647],[136.06193,35.36028],[136.0657,35.35854],[136.0703,35.34826],[136.07099,35.33775],[136.07266,35.33217],[136.07387,35.33047],[136.07694,35.32903],[136.07926,35.32595],[136.07754,35.32342],[136.07862,35.32112],[136.07704,35.31942],[136.07918,35.31689],[136.07397,35.31478],[136.06982,35.31617],[136.06876,35.31783],[136.06697,35.31777],[136.05945,35.31412],[136.05065,35.30877],[136.04786,35.30612],[136.04707,35.30367],[136.04354,35.30176],[136.03937,35.30403],[136.0354,35.30441],[136.02894,35.30352],[136.02359,35.30051],[136.01556,35.29329],[136.01853,35.28663],[136.01911,35.2795],[136.01132,35.27415],[135.99869,35.27005],[135.99507,35.26773],[135.99335,35.26424],[135.98855,35.26335],[135.98381,35.26127],[135.97642,35.257],[135.97376,35.25038],[135.97101,35.24588],[135.96404,35.24307],[135.96145,35.23862],[135.96037,35.2342],[135.96281,35.23071],[135.96338,35.22823],[135.95935,35.22635],[135.95817,35.22462],[135.95383,35.22306],[135.95151,35.22049],[135.94599,35.21863],[135.9386,35.21259],[135.93633,35.20897],[135.93587,35.20498],[135.9332,35.20599],[135.92939,35.20528],[135.92678,35.20323],[135.92466,35.20034],[135.92403,35.19702],[135.9211,35.19358],[135.92037,35.19079],[135.91749,35.18639],[135.91775,35.18346],[135.91648,35.17984],[135.91935,35.17378],[135.92183,35.16988],[135.92406,35.16841],[135.92419,35.1649],[135.928,35.16101],[135.93388,35.15681],[135.93623,35.15658],[135.93079,35.14958],[135.92801,35.14883],[135.92616,35.14592],[135.92559,35.14084],[135.92404,35.13745],[135.92722,35.1307],[135.92977,35.12858],[135.93202,35.12542],[135.92929,35.12619],[135.92778,35.12119],[135.92822,35.11808],[135.92711,35.11658],[135.92352,35.11509],[135.92108,35.1093],[135.91583,35.10666],[135.91515,35.10253],[135.91167,35.10514],[135.90887,35.10395],[135.91067,35.1025],[135.90608,35.10297],[135.90395,35.10033],[135.90655,35.10023],[135.9069,35.09829],[135.90996,35.09898],[135.91027,35.09766],[135.90631,35.09515],[135.90644,35.09248],[135.90384,35.09177],[135.89937,35.08885],[135.89718,35.08662],[135.89548,35.08911],[135.89454,35.08722],[135.89754,35.08295],[135.89292,35.08126],[135.89087,35.07855],[135.89063,35.07609],[135.88868,35.07658],[135.8879,35.07474],[135.89083,35.07325],[135.88916,35.07172],[135.88698,35.06685],[135.88843,35.06491],[135.88508,35.06596],[135.88017,35.06275],[135.87936,35.05824],[135.87822,35.05773],[135.87946,35.05445],[135.87645,35.05445],[135.8741,35.05104],[135.87474,35.04671],[135.86859,35.04314],[135.86762,35.04008],[135.86948,35.037],[135.8676,35.03569],[135.86755,35.03232],[135.86932,35.03081],[135.86763,35.02939],[135.86962,35.02617],[135.8664,35.02605],[135.86317,35.02329],[135.86321,35.02103],[135.86188,35.02066],[135.86134,35.01668],[135.8598,35.01448],[135.86278,35.01466],[135.87333,35.00867],[135.87437,35.00764],[135.87844,35.00734],[135.8916,35.00553],[135.89291,35.00359],[135.89295,35.00029],[135.89595,34.99793],[135.89471,34.99604],[135.8964,34.99494],[135.8954,34.99242],[135.89865,34.98758],[135.90251,34.98486],[135.90425,34.98229],[135.90815,34.98288],[135.90947,34.99291],[135.90955,34.9961],[135.90672,34.99744],[135.90954,35.00121],[135.91549,35.00165],[135.91788,35.00428],[135.91836,35.00623],[135.92082,35.00829],[135.92082,35.01052],[135.91862,35.01556],[135.91446,35.01662],[135.91694,35.01963],[135.91705,35.02615],[135.91371,35.02865],[135.91545,35.02918],[135.9144,35.03081],[135.91311,35.02953],[135.91249,35.03381],[135.90995,35.03395],[135.90595,35.03602],[135.91111,35.04237],[135.91581,35.04537],[135.91687,35.05047],[135.91944,35.05133]],[[135.90893,35.00731],[135.90922,35.00955],[135.91148,35.01358],[135.91658,35.01335],[135.91776,35.0092],[135.91539,35.00528],[135.91293,35.00344],[135.90888,35.00285],[135.90893,35.00731]],[[136.14204,35.42225],[136.14266,35.42407],[136.14573,35.42469],[136.14579,35.42181],[136.14445,35.42008],[136.14036,35.41988],[136.14204,35.42225]],[[136.06631,35.21114],[136.06935,35.21238],[136.07523,35.21134],[136.07519,35.20853],[136.06746,35.20313],[136.06351,35.20541],[136.06165,35.20481],[136.05665,35.19974],[136.05133,35.19848],[136.05097,35.20023],[136.0546,35.20146],[136.05532,35.20511],[136.05388,35.20895],[136.0553,35.21045],[136.06119,35.20951],[136.06631,35.21114]]]},"properties":{"@id":"relation/63499","alt_name:eo":"Lago Bivo","intermittent":"no","name":"琵琶湖","name:en":"Lake Biwa","name:eo":"Lago Biŭa","name:fr":"Lac Biwa","name:hu":"Biwa-tó","name:ia":"Laco Biwa","name:it":"Lago Biwa","name:ja":"琵琶湖","name:ja-Hira":"びわこ","name:ja-Latn":"Biwako","name:pl":"Biwa","name:pt":"Lago Biwa","name:ru":"Бива (озеро)","name:uk":"озеро Біва","name:zh":"琵琶湖","natural":"water","note":"National-Land Numerical Information (Lake and Pond) 2005, MLIT Japan","note:ja":"国土数値情報（湖沼データ）平成17年 国土交通省","salt":"no","source":"KSJ2","source_ref":"http://nlftp.mlit.go.jp/ksj/jpgis/datalist/KsjTmplt-W09.html","tidal":"no","type":"multipolygon","water":"lake","water_type":"fresh","wikidata":"Q200239","wikimedia_commons":"Category:Lake Biwa","wikipedia":"ja:琵琶湖"},"id":"relation/63499"},
{"type":"Feature","geometry":{"type":"Polygon","coordinates":[[[140.39882,36.11609],[140.39513,36.12309],[140.3897,36.12841],[140.38679,36.1295],[140.38306,36.13504],[140.38249,36.13804],[140.37636,36.14222],[140.37376,36.14487],[140.36914,36.14821],[140.36647,36.14933],[140.35987,36.14965],[140.35431,36.14778],[140.35229,36.14568],[140.35315,36.14219],[140.35226,36.14003],[140.34851,36.13889],[140.3412,36.13989],[140.33939,36.14473],[140.33458,36.14982],[140.33172,36.15125],[140.32476,36.15334],[140.32106,36.15793],[140.31631,36.16108],[140.31165,36.16116],[140.30541,36.15998],[140.30893,36.15822],[140.30918,36.15533],[140.30661,36.1506],[140.31213,36.1488],[140.32098,36.14435],[140.32438,36.14634],[140.33579,36.13713],[140.33633,36.13392],[140.33531,36.13147],[140.33283,36.129],[140.334,36.12683],[140.33673,36.12445],[140.34025,36.12296],[140.34797,36.12193],[140.35288,36.11962],[140.35942,36.11738],[140.36523,36.11424],[140.37157,36.10893],[140.3785,36.10613],[140.38268,36.10368],[140.38237,36.10227],[140.37738,36.10006],[140.37457,36.10008],[140.37576,36.09687],[140.37908,36.09432],[140.38671,36.09085],[140.3932,36.08938],[140.39389,36.08605],[140.38834,36.08001],[140.38163,36.07601],[140.37312,36.06766],[140.37153,36.06503],[140.36798,36.06193],[140.36451,36.06138],[140.35488,36.06303],[140.34393,36.06272],[140.33715,36.06093],[140.33186,36.06048],[140.32876,36.06108],[140.31691,36.06609],[140.31034,36.06821],[140.30632,36.06887],[140.3023,36.06728],[140.30034,36.06481],[140.29557,36.06147],[140.29315,36.0605],[140.28435,36.06475],[140.27745,36.06609],[140.27708,36.06685],[140.26779,36.06796],[140.26,36.06841],[140.25661,36.06783],[140.24675,36.06848],[140.24068,36.07113],[140.24134,36.07369],[140.23923,36.07539],[140.23774,36.0815],[140.23638,36.08258],[140.23273,36.0827],[140.23039,36.08457],[140.2226,36.08604],[140.2185,36.08477],[140.21798,36.08334],[140.21556,36.08346],[140.21425,36.08031],[140.20928,36.08],[140.21319,36.07831],[140.21807,36.08034],[140.2189,36.07679],[140.21773,36.07613],[140.21115,36.07598],[140.20639,36.07456],[140.2072,36.0738],[140.21158,36.0749],[140.21705,36.07493],[140.21988,36.07414],[140.21989,36.06589],[140.22139,36.06579],[140.22219,36.06161],[140.22082,36.06021],[140.22291,36.055],[140.22384,36.05423],[140.22791,36.04613],[140.23454,36.04242],[140.24325,36.04083],[140.25298,36.03762],[140.25616,36.03705],[140.25747,36.03532],[140.26086,36.03428],[140.26562,36.03434],[140.27146,36.03532],[140.27838,36.03454],[140.2851,36.03029],[140.29461,36.02817],[140.2964,36.02702],[140.30383,36.02762],[140.31161,36.031],[140.31522,36.03155],[140.31671,36.03088],[140.31921,36.02757],[140.32271,36.02618],[140.32568,36.02666],[140.33019,36.02886],[140.33574,36.02929],[140.34343,36.02927],[140.34532,36.03028],[140.3515,36.02875],[140.35336,36.02752],[140.35401,36.02377],[140.3619,36.01591],[140.36816,36.01215],[140.37236,36.01014],[140.37523,36.00677],[140.37659,36.00258],[140.37141,36.00149],[140.36688,35.99828],[140.36363,35.99504],[140.36297,35.99664],[140.35557,35.99457],[140.35183,35.99288],[140.34774,35.99187],[140.34575,35.98903],[140.3467,35.98541],[140.34638,35.97688],[140.35248,35.97366],[140.35289,35.9718],[140.34886,35.97152],[140.34474,35.96963],[140.34242,35.9668],[140.33751,35.9595],[140.33333,35.95866],[140.32723,35.96116],[140.32563,35.96067],[140.32494,35.95832],[140.32959,35.9585],[140.33409,35.95729],[140.33807,35.95797],[140.33978,35.95932],[140.34173,35.96367],[140.34523,35.96846],[140.35286,35.96981],[140.35412,35.97308],[140.35051,35.97546],[140.35036,35.97867],[140.35364,35.98393],[140.35449,35.98734],[140.35751,35.98757],[140.36274,35.9846],[140.37149,35.98316],[140.37407,35.98371],[140.37867,35.98263],[140.38332,35.98246],[140.39333,35.98274],[140.39659,35.98411],[140.39925,35.98981],[140.40349,35.99089],[140.40899,35.99028],[140.41249,35.98924],[140.41951,35.98534],[140.43639,35.98067],[140.44185,35.97815],[140.44726,35.97775],[140.45045,35.97468],[140.44766,35.97358],[140.44576,35.97494],[140.44489,35.97176],[140.44635,35.96963],[140.44989,35.96666],[140.45818,35.96368],[140.46449,35.9619],[140.4691,35.95925],[140.46867,35.95869],[140.45819,35.95698],[140.45576,35.95585],[140.45231,35.94862],[140.45247,35.94574],[140.44983,35.94449],[140.45377,35.94481],[140.45463,35.94191],[140.45514,35.94512],[140.4569,35.94913],[140.45945,35.95138],[140.46297,35.95691],[140.47513,35.95898],[140.48326,35.95754],[140.48961,35.95303],[140.49744,35.95639],[140.49837,35.96078],[140.50005,35.96192],[140.50332,35.96152],[140.50721,35.95935],[140.50897,35.96116],[140.50254,35.96517],[140.50099,35.96802],[140.50128,35.9707],[140.4991,35.97613],[140.49672,35.9788],[140.49048,35.98251],[140.48502,35.9844],[140.48161,35.98383],[140.47646,35.98435],[140.47369,35.98784],[140.47132,35.99771],[140.47029,35.99913],[140.46682,36.01031],[140.4647,36.01308],[140.4621,36.012],[140.45164,36.02913],[140.45395,36.03],[140.44726,36.03584],[140.44434,36.0394],[140.44161,36.04491],[140.43841,36.04926],[140.43193,36.05606],[140.42884,36.05806],[140.42083,36.06632],[140.41664,36.07683],[140.41707,36.08267],[140.41576,36.08716],[140.41209,36.09025],[140.40691,36.09247],[140.40339,36.09314],[140.40164,36.09545],[140.40107,36.10243],[140.39659,36.10504],[140.39706,36.10877],[140.39938,36.11295],[140.39882,36.11609]]]},"properties":{"@id":"relation/253637","boat":"yes","description":"本来の「霞ヶ浦」は北浦・外浪逆浦や周辺の水路を含めた総称で、最大の湖（狭義の霞ヶ浦）は「西浦」と呼称される。","name":"霞ヶ浦（西浦）","name:en":"Lake Kasumigaura","name:hu":"Kasumiga-tó","name:ja":"霞ヶ浦（西浦）","name:ja-Hira":"かすみがうら","name:ja-Latn":"Kasumigaura","name:zh":"霞浦","name:zh-Hant":"霞浦","natural":"water","type":"multipolygon","water":"lake","wikidata":"Q1077984","wikipedia":"ja:霞ヶ浦"},"id":"relation/253637"},
{"type":"Feature","geometry":{"type":"Polygon","coordinates":[[[140.02227,37.51223],[140.01989,37.50916],[140.01897,37.50578],[140.02136,37.50506],[140.02025,37.50261],[140.02158,37.50159],[140.02167,37.49875],[140.02557,37.49738],[140.02711,37.49217],[140.0314,37.49128],[140.03178,37.48899],[140.02974,37.48702],[140.03004,37.48468],[140.03219,37.48287],[140.03004,37.47868],[140.03169,37.4774],[140.03496,37.47724],[140.04002,37.48109],[140.03997,37.4836],[140.04256,37.48395],[140.04184,37.47853],[140.0426,37.47648],[140.04741,37.4734],[140.04649,37.46465],[140.04728,37.45951],[140.05056,37.45733],[140.05181,37.45431],[140.05605,37.45237],[140.05686,37.45001],[140.06066,37.44795],[140.0637,37.44927],[140.063,37.44723],[140.06438,37.4451],[140.0664,37.44505],[140.06936,37.44213],[140.0675,37.43848],[140.06837,37.43492],[140.07083,37.43095],[140.07154,37.42763],[140.07751,37.42567],[140.07776,37.42061],[140.08582,37.41947],[140.09068,37.42026],[140.09693,37.41956],[140.09652,37.41398],[140.09876,37.41382],[140.10161,37.41631],[140.10752,37.41818],[140.10989,37.41632],[140.10964,37.4141],[140.11216,37.41313],[140.11738,37.41346],[140.12726,37.4194],[140.13311,37.42375],[140.14188,37.43156],[140.14613,37.43626],[140.14717,37.44013],[140.15129,37.445],[140.15344,37.44899],[140.15118,37.4559],[140.15486,37.46211],[140.15498,37.46455],[140.15255,37.46973],[140.14889,37.47548],[140.14791,37.47812],[140.1488,37.48021],[140.15319,37.48356],[140.15474,37.4888],[140.1541,37.49048],[140.14997,37.49114],[140.14668,37.49347],[140.14485,37.50114],[140.14302,37.50297],[140.13789,37.5026],[140.14014,37.50149],[140.13786,37.50123],[140.13502,37.50324],[140.13102,37.50468],[140.12604,37.50566],[140.11842,37.50584],[140.11394,37.50812],[140.11131,37.51032],[140.11214,37.51414],[140.11491,37.51783],[140.11598,37.52169],[140.11484,37.52642],[140.11404,37.52625],[140.11155,37.53103],[140.10611,37.53241],[140.0992,37.53245],[140.0971,37.53147],[140.09327,37.53299],[140.08305,37.53368],[140.07595,37.53328],[140.06796,37.53204],[140.06449,37.53253],[140.05798,37.52914],[140.05533,37.52656],[140.04847,37.52421],[140.04662,37.52256],[140.0449,37.5167],[140.04038,37.51565],[140.03803,37.51711],[140.03598,37.51628],[140.03475,37.51227],[140.032,37.5111],[140.02884,37.51211],[140.02541,37.51606],[140.02229,37.51703],[140.02115,37.51456],[140.02292,37.5137],[140.02227,37.51223]],[[140.03569,37.51242],[140.03971,37.5094],[140.03703,37.50839],[140.03531,37.50942],[140.03569,37.51242]]]},"properties":{"@id":"relation/253753","KSJ2:AAC":"07202,07203,07408","KSJ2:AAC_label":"福島県会津若松市,福島県郡山市,福島県耶麻郡猪苗代町","KSJ2:HOW":"514","KSJ2:LDM":"94","ele":"514","name":"猪苗代湖","name:en":"Lake Inawashiro","name:fr":"Lac Inawashiro","name:ja":"猪苗代湖","name:ja-Hira":"いなわしろこ","name:ja-Latn":"Inawashiro-ko","natural":"water","note":"National-Land Numerical Information (Lake and Pond) 2005, MLIT Japan","note:ja":"国土数値情報（湖沼データ）平成17年　国土交通省","source":"KSJ2","source_ref":"http://nlftp.mlit.go.jp/ksj/jpgis/datalist/KsjTmplt-W09.html","type":"multipolygon","water":"lake","water_type":"fresh","wikidata":"Q1140672","wikimedia_commons":"Category:Lake Inawashiro","wikipedia":"ja:猪苗代湖"},"id":"relation/253753"},
{"type":"Feature","geometry":{"type":"Polygon","coordinates":[[[140.93223,40.44608],[140.93696,40.44751],[140.9382,40.45024],[140.93831,40.45385],[140.94367,40.4571],[140.94461,40.46322],[140.94055,40.46742],[140.9402,40.47043],[140.94175,40.47474],[140.94102,40.47823],[140.93713,40.48097],[140.93293,40.48278],[140.93212,40.48546],[140.9258,40.49191],[140.9207,40.49281],[140.92011,40.49486],[140.92162,40.49664],[140.91631,40.50361],[140.90947,40.50427],[140.90498,40.50342],[140.90227,40.50215],[140.89689,40.50349],[140.89213,40.5003],[140.88775,40.50049],[140.87999,40.4996],[140.87844,40.49823],[140.87308,40.49776],[140.86992,40.49684],[140.86254,40.49979],[140.85862,40.49976],[140.85433,40.49885],[140.85102,40.49729],[140.84865,40.49735],[140.8429,40.49577],[140.83923,40.49361],[140.83838,40.49194],[140.83363,40.49034],[140.83263,40.48855],[140.83232,40.48445],[140.83402,40.48368],[140.83069,40.48109],[140.82828,40.48022],[140.82804,40.47759],[140.83077,40.47284],[140.83576,40.46769],[140.83612,40.46395],[140.83806,40.46034],[140.84125,40.45753],[140.8428,40.45769],[140.8446,40.45558],[140.84415,40.45362],[140.83965,40.45082],[140.83965,40.44712],[140.84312,40.44372],[140.84528,40.44324],[140.84405,40.44198],[140.84726,40.43837],[140.84669,40.4363],[140.84952,40.43316],[140.85547,40.43021],[140.85678,40.42503],[140.85609,40.42418],[140.85727,40.41908],[140.85992,40.41653],[140.86512,40.41421],[140.8688,40.41356],[140.87182,40.41392],[140.87345,40.41575],[140.87515,40.41341],[140.87696,40.41305],[140.8827,40.41432],[140.88602,40.41578],[140.88828,40.41819],[140.89275,40.42079],[140.89193,40.42342],[140.89257,40.42889],[140.89011,40.432],[140.88495,40.43509],[140.88006,40.43458],[140.87906,40.43544],[140.87917,40.43965],[140.88046,40.44072],[140.87807,40.44433],[140.87644,40.44486],[140.87586,40.45016],[140.87817,40.45146],[140.87802,40.44791],[140.88106,40.44593],[140.8844,40.44607],[140.88536,40.4445],[140.88377,40.44256],[140.88536,40.44149],[140.89004,40.43598],[140.89247,40.43592],[140.89508,40.43294],[140.89914,40.43191],[140.90782,40.43294],[140.91277,40.43587],[140.91289,40.4392],[140.91479,40.4397],[140.91511,40.44439],[140.91298,40.45056],[140.91101,40.45362],[140.9065,40.45502],[140.90632,40.45671],[140.90328,40.45672],[140.90398,40.46335],[140.90566,40.46532],[140.90926,40.46643],[140.91232,40.46648],[140.91972,40.46511],[140.92303,40.46187],[140.9225,40.45962],[140.91683,40.45261],[140.92327,40.45087],[140.92062,40.44975],[140.92707,40.44938],[140.92934,40.44838],[140.92834,40.44623],[140.93223,40.44608]]]},"properties":{"@id":"relation/253938","KSJ2:AAC":"02206,05303","KSJ2:AAC_label":"青森県十和田市,秋田県鹿角郡小坂町","KSJ2:HOW":"400","KSJ2:LDM":"327","contact:tripadvisor":"1385311","intermittent":"no","name":"十和田湖","name:en":"Lake Towada","name:fr":"Lac Towada","name:ja":"十和田湖","name:ja-Hira":"とわだこ","name:ja-Latn":"Towada-ko","name:zh":"十和田湖","name:zh-Hans":"十和田湖","name:zh-Hant":"十和田湖","natural":"water","note":"National-Land Numerical Information (Lake and Pond) 2005, MLIT Japan","note:ja":"国土数値情報（湖沼データ）平成17年　国土交通省","source":"KSJ2","source_ref":"http://nlftp.mlit.go.jp/ksj/jpgis/datalist/KsjTmplt-W09.html","type":"multipolygon","water":"lake","water_type":"fresh","wikidata":"Q1196132","wikimedia_commons":"Category:Lake Towada","wikipedia":"ja:十和田湖"},"id":"relation/253938"},
{"type":"Feature","geometry":{"type":"Polygon","coordinates":[[[141.34888,40.72147],[141.35296,40.72507],[141.35629,40.73029],[141.3584,40.73573],[141.35957,40.74406],[141.35957,40.75585],[141.35816,40.76767],[141.35708,40.77206],[141.35513,40.77485],[141.34891,40.77798],[141.34819,40.77954],[141.34907,40.78295],[141.34844,40.78883],[141.3488,40.79353],[141.34804,40.79598],[141.34786,40.80403],[141.34966,40.8098],[141.35144,40.81233],[141.35656,40.81412],[141.35909,40.81604],[141.36617,40.8275],[141.36603,40.83172],[141.36824,40.83617],[141.36742,40.84132],[141.36535,40.84285],[141.35961,40.84458],[141.35657,40.8447],[141.35069,40.84287],[141.33933,40.84245],[141.33743,40.84284],[141.32592,40.84762],[141.32901,40.84967],[141.32829,40.85278],[141.32544,40.85102],[141.31876,40.84918],[141.31537,40.84744],[141.3146,40.84369],[141.30968,40.83602],[141.30766,40.83126],[141.30238,40.82723],[141.29799,40.82126],[141.2968,40.81672],[141.29737,40.81073],[141.2989,40.80713],[141.30046,40.80573],[141.30188,40.80227],[141.30187,40.79884],[141.3029,40.79459],[141.30659,40.78937],[141.30867,40.78489],[141.30906,40.7799],[141.31145,40.77805],[141.31196,40.77596],[141.31662,40.77381],[141.31742,40.77002],[141.31682,40.76797],[141.31804,40.7636],[141.32001,40.76164],[141.32545,40.75881],[141.32651,40.75334],[141.3246,40.75156],[141.32067,40.75106],[141.31643,40.74897],[141.30835,40.74927],[141.30561,40.74606],[141.30305,40.7459],[141.29893,40.74959],[141.2939,40.75042],[141.29268,40.74954],[141.28933,40.75117],[141.28694,40.75482],[141.2847,40.7541],[141.28647,40.74803],[141.28763,40.74694],[141.28491,40.74499],[141.28221,40.74556],[141.27688,40.74152],[141.28068,40.73594],[141.2828,40.72899],[141.28789,40.72595],[141.28819,40.72343],[141.29149,40.72235],[141.29089,40.72092],[141.29899,40.72047],[141.29606,40.7177],[141.29994,40.71787],[141.30531,40.71669],[141.30855,40.71864],[141.31097,40.71904],[141.31366,40.72236],[141.32154,40.7258],[141.32885,40.72635],[141.33136,40.727],[141.34471,40.72046],[141.34888,40.72147]]]},"properties":{"@id":"relation/253961","KSJ2:AAC":"02207,02408,02411","KSJ2:AAC_label":"青森県三沢市,青森県上北郡東北町,青森県上北郡六ケ所村","KSJ2:HOW":"0","KSJ2:LDM":"24","name":"小川原湖","name:en":"Lake Ogawara","name:ja":"小川原湖","name:ja-Hira":"おがわらこ","name:ja_rm":"Ogawarako","natural":"water","note":"National-Land Numerical Information (Lake and Pond) 2005, MLIT Japan","note:ja":"国土数値情報（湖沼データ）平成17年 国土交通省","salt":"yes","source":"KSJ2","source_ref":"http://nlftp.mlit.go.jp/ksj/jpgis/datalist/KsjTmplt-W09.html","type":"multipolygon","water":"lake","wikidata":"Q1037216","wikipedia":"ja:小川原湖"},"id":"relation/253961"},
{"type":"Feature","geometry":{"type":"Polygon","coordinates":[[[144.31132,43.57804],[144.31416,43.57567],[144.3205,43.57371],[144.32368,43.56554],[144.32274,43.55957],[144.32505,43.55814],[144.33258,43.55787],[144.33697,43.55893],[144.34167,43.56264],[144.34071,43.56813],[144.34616,43.57356],[144.34878,43.57755],[144.35016,43.58139],[144.34817,43.58701],[144.34789,43.5937],[144.34895,43.59915],[144.34835,43.60084],[144.35831,43.60853],[144.36052,43.6123],[144.36038,43.61472],[144.35767,43.61746],[144.35865,43.6229],[144.36098,43.62693],[144.35996,43.62872],[144.36242,43.63288],[144.36518,43.63371],[144.37091,43.6389],[144.3762,43.64213],[144.37842,43.64612],[144.38273,43.64877],[144.38585,43.64822],[144.38725,43.64604],[144.39072,43.64462],[144.39644,43.64571],[144.40014,43.6454],[144.40926,43.64685],[144.41165,43.6477],[144.41479,43.6534],[144.41517,43.65691],[144.4144,43.66447],[144.41194,43.66849],[144.4085,43.66927],[144.40415,43.66765],[144.39804,43.66914],[144.39301,43.67348],[144.39058,43.67431],[144.38546,43.67377],[144.38086,43.67174],[144.37725,43.67162],[144.37058,43.67451],[144.36565,43.67522],[144.36399,43.67463],[144.35812,43.67481],[144.35437,43.67306],[144.34376,43.67111],[144.32937,43.67075],[144.326,43.67183],[144.32051,43.67204],[144.3164,43.67052],[144.31221,43.66471],[144.30912,43.66172],[144.3039,43.66013],[144.30237,43.65838],[144.30013,43.65818],[144.29431,43.66027],[144.29043,43.65883],[144.28686,43.65848],[144.28433,43.65656],[144.27944,43.65435],[144.27895,43.65126],[144.27629,43.64909],[144.2761,43.6442],[144.27501,43.64041],[144.2693,43.63687],[144.26778,43.63251],[144.27033,43.62895],[144.26769,43.62459],[144.26602,43.62409],[144.2619,43.61902],[144.26137,43.61548],[144.2599,43.61357],[144.25916,43.60751],[144.25995,43.60285],[144.26353,43.59707],[144.27213,43.58824],[144.2769,43.58417],[144.28165,43.5832],[144.28634,43.58343],[144.29092,43.58227],[144.2932,43.57767],[144.29782,43.57598],[144.30391,43.576],[144.31013,43.57883],[144.31096,43.58183],[144.30901,43.58248],[144.30795,43.58472],[144.31472,43.58712],[144.31847,43.58445],[144.31157,43.57977],[144.31132,43.57804]],[[144.30261,43.64339],[144.30618,43.64393],[144.31583,43.64227],[144.32029,43.6396],[144.32351,43.63897],[144.32247,43.63746],[144.32283,43.63083],[144.31698,43.62398],[144.30729,43.61838],[144.30176,43.61954],[144.29834,43.62096],[144.29158,43.62638],[144.28751,43.63375],[144.2855,43.63568],[144.28979,43.63706],[144.29415,43.64041],[144.29864,43.64283],[144.30261,43.64339]]]},"properties":{"@id":"relation/284148","ele":"121","image":"http://i.imgur.com/NCwqA.jpg","int_name":"Kussharo-ko","name":"屈斜路湖","name:de":"Kussharo-See","name:en":"Lake Kussharo","name:fr":"Lac Kussharo","name:ja":"屈斜路湖","name:ja-Hira":"くっしゃろこ","name:ja-Latn":"Kussharo ko","name:ru":"озеро Куттяро","name:uk":"озеро Куссяро","natural":"water","note":"National-Land Numerical Information (Lake and Pond) 2005, MLIT Japan","note:ja":"国土数値情報（湖沼データ）平成17年　国土交通省","source":"KSJ2","source_ref":"http://nlftp.mlit.go.jp/ksj/jpgis/datalist/KsjTmplt-W09.html","type":"multipolygon","water":"lake","water_type":"fresh","wikidata":"Q1329458","wikipedia":"ja:屈斜路湖"},"id":"relation/284148"},
{"type":"Feature","geometry":{"type":"Polygon","coordinates":[[[144.16261,43.93011],[144.16217,43.92932],[144.1647,43.92805],[144.16083,43.92793],[144.15778,43.92547],[144.15899,43.92275],[144.16129,43.92254],[144.16018,43.92026],[144.16253,43.91734],[144.16778,43.91714],[144.17439,43.91821],[144.17924,43.9213],[144.1811,43.92413],[144.18091,43.92656],[144.17813,43.92878],[144.1763,43.93662],[144.17931,43.93964],[144.18077,43.94237],[144.18002,43.94617],[144.1775,43.94901],[144.17752,43.95116],[144.18168,43.95478],[144.18421,43.95454],[144.18797,43.95672],[144.19121,43.95535],[144.19546,43.95628],[144.19899,43.95792],[144.20072,43.96123],[144.19797,43.96582],[144.19681,43.96582],[144.19666,43.97478],[144.19729,43.97723],[144.20044,43.98023],[144.20009,43.98227],[144.19823,43.98325],[144.19836,43.9871],[144.19983,43.99033],[144.20415,43.99403],[144.20665,43.99368],[144.21039,43.99519],[144.21345,43.99531],[144.21615,43.99764],[144.21635,43.9953],[144.21426,43.99394],[144.21431,43.99085],[144.21237,43.98936],[144.2141,43.98771],[144.21106,43.98142],[144.21296,43.9794],[144.21328,43.97603],[144.21538,43.97583],[144.21748,43.98311],[144.22043,43.98457],[144.218,43.99033],[144.22248,43.99402],[144.22329,43.9979],[144.22218,43.99983],[144.22555,44.00247],[144.21259,44.00686],[144.207,44.00786],[144.19798,44.00696],[144.19047,44.00733],[144.18334,44.00326],[144.18068,44.001],[144.17714,43.99972],[144.17053,43.99851],[144.16723,43.99552],[144.16718,43.99283],[144.16237,43.98513],[144.16143,43.98248],[144.15262,43.97043],[144.14901,43.96337],[144.14453,43.96063],[144.14093,43.95957],[144.13434,43.95645],[144.13117,43.95355],[144.12911,43.94815],[144.12572,43.94304],[144.12483,43.94011],[144.12679,43.93728],[144.13157,43.93848],[144.13602,43.93728],[144.13934,43.93952],[144.14493,43.94161],[144.14721,43.94068],[144.14893,43.93846],[144.15091,43.93387],[144.15364,43.93336],[144.15874,43.93482],[144.16002,43.93193],[144.16261,43.93011]],[[144.16814,43.92939],[144.16744,43.92779],[144.16541,43.92874],[144.16683,43.92879],[144.16814,43.92939]],[[144.16459,43.93047],[144.16756,43.92988],[144.16682,43.92902],[144.16237,43.92945],[144.16459,43.93047]]]},"properties":{"@id":"relation/1341592","int_name":"Abashiri Ko","int_name:source_ref":"http://www.gsi.go.jp/kihonjohochousa/gazetteer.html","name":"網走湖","name:en":"Lake Abashiri","name:ja":"網走湖","name:ja_rm":"Abashiri Ko","name:ru":"озеро Абасири","natural":"water","source":"MLIT, Japan","source:ja":"国土数値情報（湖沼データ）平成17年　国土交通省","source_ref":"http://nlftp.mlit.go.jp/ksj/jpgis/datalist/KsjTmplt-C23.html","type":"multipolygon","water":"lake","wikidata":"Q572825","wikipedia":"ja:網走湖"},"id":"relation/1341592"},
{"type":"Feature","geometry":{"type":"Polygon","coordinates":[[[143.66887,44.18384],[143.67464,44.18348],[143.67631,44.17984],[143.67917,44.17781],[143.68331,44.17354],[143.68579,44.16962],[143.69757,44.16563],[143.70497,44.15921],[143.70725,44.16086],[143.7069,44.15701],[143.70563,44.15296],[143.70628,44.15011],[143.71284,44.14912],[143.70978,44.14853],[143.70905,44.14436],[143.71122,44.13952],[143.71311,44.13902],[143.71554,44.13658],[143.7192,44.13597],[143.72286,44.13154],[143.72249,44.12616],[143.72102,44.12396],[143.72093,44.12097],[143.72332,44.1161],[143.72327,44.11397],[143.7261,44.11233],[143.72811,44.10887],[143.73103,44.107],[143.73295,44.10713],[143.7349,44.10441],[143.73582,44.10526],[143.73631,44.11283],[143.7345,44.11251],[143.73546,44.11777],[143.73448,44.12056],[143.74673,44.12112],[143.75184,44.1193],[143.75839,44.115],[143.7599,44.11157],[143.7589,44.10792],[143.75736,44.10644],[143.75597,44.1022],[143.7575,44.09928],[143.76097,44.09781],[143.76432,44.09801],[143.76662,44.10002],[143.76981,44.10446],[143.77349,44.10695],[143.77661,44.10743],[143.77665,44.10236],[143.78179,44.10086],[143.78147,44.09854],[143.78395,44.09716],[143.78854,44.09689],[143.79095,44.09571],[143.79365,44.09614],[143.79888,44.09554],[143.80279,44.09649],[143.80234,44.09885],[143.80499,44.09616],[143.80897,44.0968],[143.81905,44.10125],[143.82949,44.10475],[143.83482,44.10698],[143.8405,44.10792],[143.84448,44.10734],[143.85069,44.10471],[143.85302,44.10429],[143.85959,44.10113],[143.86467,44.10081],[143.87505,44.09818],[143.88915,44.09934],[143.89746,44.10288],[143.91017,44.10933],[143.91215,44.10773],[143.9059,44.1057],[143.90699,44.10233],[143.90709,44.09828],[143.912,44.09479],[143.91585,44.093],[143.92576,44.09277],[143.92918,44.09103],[143.9293,44.08825],[143.93434,44.08522],[143.93705,44.08602],[143.93961,44.08521],[143.94391,44.08584],[143.94982,44.09013],[143.95563,44.09558],[143.96181,44.10352],[143.96617,44.112],[143.97037,44.12348],[143.97009,44.12612],[143.97094,44.12777],[143.97058,44.12815],[143.97129,44.13056],[143.97515,44.13369],[143.97997,44.1325],[143.97614,44.13091],[143.98456,44.13164],[143.98748,44.12978],[143.99108,44.13137],[144.00062,44.13042],[144.0108,44.13134],[144.00404,44.1323],[143.99841,44.13244],[143.9961,44.13344],[143.99177,44.13372],[143.98436,44.13547],[143.97209,44.13688],[143.96359,44.13633],[143.96364,44.13503],[143.96768,44.13333],[143.96976,44.1335],[143.96618,44.13025],[143.96526,44.12836],[143.96263,44.13337],[143.9591,44.13544],[143.95265,44.13681],[143.94538,44.1402],[143.93659,44.14259],[143.934,44.14408],[143.92474,44.14525],[143.91519,44.14403],[143.9111,44.14237],[143.90705,44.14345],[143.9025,44.14654],[143.8968,44.14837],[143.89102,44.14939],[143.87908,44.15272],[143.87413,44.1537],[143.85868,44.16012],[143.8482,44.16317],[143.84284,44.16435],[143.8403,44.16412],[143.83415,44.1667],[143.82632,44.16844],[143.81537,44.17178],[143.80832,44.17291],[143.8002,44.17529],[143.78938,44.17649],[143.78679,44.1771],[143.78875,44.17867],[143.78266,44.17954],[143.77401,44.18157],[143.76927,44.18347],[143.76001,44.18641],[143.75083,44.1874],[143.74491,44.18744],[143.74496,44.18637],[143.73965,44.18614],[143.73817,44.18768],[143.73085,44.18719],[143.72915,44.18613],[143.72297,44.19233],[143.71961,44.19442],[143.71287,44.1954],[143.70714,44.19506],[143.70403,44.19412],[143.69765,44.19466],[143.68735,44.19453],[143.68446,44.19894],[143.68286,44.19942],[143.67752,44.19834],[143.67398,44.19602],[143.66955,44.19098],[143.66832,44.18811],[143.66887,44.18384]],[[143.9696,44.12633],[143.96758,44.12858],[143.96815,44.12909],[143.96913,44.128],[143.97055,44.12778],[143.9696,44.12633]]]},"properties":{"@id":"relation/1341598","alt_name":"佐呂間湖;猿澗湖","ele":"0","name":"サロマ湖","name:en":"Lake Saroma","name:ja":"サロマ湖","name:ja-Hira":"さろまこ","name:ja-Latn":"Saroma ko","name:ru":"озеро Сарома","name:zh":"佐呂間湖","name:zh-Hans":"佐吕间湖","name:zh-Hant":"佐呂間湖","natural":"water","salt":"yes","type":"multipolygon","water":"lagoon","wikidata":"Q1329031","wikipedia":"ja:サロマ湖"},"id":"relation/1341598"},
{"type":"Feature","geometry":{"type":"Polygon","coordinates":[[[145.22408,43.33798],[145.22456,43.33683],[145.22988,43.33216],[145.23398,43.33056],[145.23905,43.3266],[145.23952,43.32409],[145.24138,43.32341],[145.24034,43.32166],[145.2429,43.31881],[145.24323,43.31642],[145.2476,43.31442],[145.24836,43.3169],[145.25471,43.31691],[145.25416,43.31562],[145.25716,43.31215],[145.26237,43.3123],[145.26174,43.31065],[145.26696,43.31452],[145.27388,43.31885],[145.27734,43.32252],[145.28409,43.32398],[145.28861,43.32422],[145.30084,43.32232],[145.30479,43.32118],[145.30889,43.31887],[145.31826,43.31514],[145.32544,43.31283],[145.33287,43.30786],[145.33386,43.30592],[145.32936,43.30153],[145.32706,43.30305],[145.32231,43.30367],[145.31943,43.30551],[145.3153,43.30698],[145.30565,43.30866],[145.29953,43.30718],[145.29667,43.30767],[145.29448,43.30922],[145.29364,43.30722],[145.29536,43.30669],[145.29974,43.302],[145.30263,43.29558],[145.30279,43.2932],[145.30137,43.28981],[145.29611,43.29012],[145.29256,43.28912],[145.2937,43.28627],[145.29727,43.28409],[145.3016,43.28331],[145.30815,43.27929],[145.31065,43.27562],[145.31696,43.27554],[145.3244,43.27419],[145.32808,43.27298],[145.32854,43.27493],[145.32458,43.27847],[145.32188,43.27854],[145.31951,43.2808],[145.32222,43.28363],[145.32662,43.28459],[145.33098,43.2845],[145.33882,43.28243],[145.34716,43.27929],[145.35664,43.27847],[145.36668,43.27389],[145.37103,43.27062],[145.37346,43.27056],[145.37807,43.26906],[145.38136,43.26665],[145.38469,43.263],[145.38894,43.26189],[145.39076,43.26229],[145.39322,43.26476],[145.39755,43.26593],[145.4119,43.26593],[145.4235,43.26551],[145.43261,43.26384],[145.43899,43.26223],[145.44328,43.26218],[145.45016,43.26403],[145.45785,43.26244],[145.45931,43.26164],[145.46255,43.26497],[145.46928,43.26809],[145.47314,43.27094],[145.47241,43.2725],[145.46698,43.27407],[145.46441,43.27371],[145.46425,43.27144],[145.46584,43.26945],[145.46009,43.26537],[145.45648,43.2646],[145.45413,43.26603],[145.45438,43.26836],[145.45029,43.27018],[145.44456,43.27081],[145.43831,43.27212],[145.43343,43.27427],[145.42351,43.27767],[145.41845,43.27857],[145.40957,43.27931],[145.40357,43.2825],[145.409,43.28382],[145.41603,43.28296],[145.42404,43.281],[145.42479,43.28236],[145.41684,43.28581],[145.41281,43.28519],[145.40972,43.28813],[145.40401,43.28975],[145.40229,43.28832],[145.39787,43.2891],[145.40139,43.29069],[145.40517,43.29084],[145.41571,43.28703],[145.42482,43.28407],[145.43048,43.2833],[145.42956,43.28451],[145.42078,43.28703],[145.40889,43.29112],[145.40193,43.29119],[145.39821,43.29068],[145.39414,43.28894],[145.39364,43.28654],[145.39178,43.28598],[145.38964,43.28892],[145.38593,43.29738],[145.38379,43.29774],[145.38367,43.29963],[145.37795,43.3061],[145.37555,43.30691],[145.37259,43.30944],[145.36309,43.3135],[145.3625,43.31441],[145.35656,43.31712],[145.35934,43.31335],[145.35782,43.31254],[145.35417,43.31341],[145.35131,43.31741],[145.34857,43.31731],[145.34638,43.32138],[145.33671,43.32849],[145.33525,43.32807],[145.33087,43.32933],[145.33525,43.32143],[145.33203,43.32025],[145.32653,43.32441],[145.3226,43.32465],[145.32506,43.32627],[145.31953,43.32811],[145.31716,43.32991],[145.31355,43.33082],[145.3144,43.33255],[145.30999,43.33303],[145.30976,43.33033],[145.30724,43.33292],[145.30611,43.3406],[145.30742,43.34406],[145.30565,43.34861],[145.30649,43.35041],[145.30552,43.35251],[145.30139,43.35216],[145.30015,43.35029],[145.29421,43.35405],[145.27708,43.35708],[145.26385,43.35808],[145.24153,43.35856],[145.23769,43.35533],[145.23126,43.34894],[145.23032,43.34735],[145.22661,43.34478],[145.2268,43.34349],[145.22312,43.34245],[145.22177,43.34036],[145.22408,43.33798]]]},"properties":{"@id":"relation/1341602","ele":"0","name":"風蓮湖","name:en":"Lake Furen","name:ja":"風蓮湖","name:ja-Hira":"ふうれんこ","name:ja-Latn":"Fūrenko","natural":"water","type":"multipolygon","water":"lagoon","wikidata":"Q846979","wikipedia":"ja:風蓮湖"},"id":"relation/1341602"},
{"type":"Feature","geometry":{"type":"Polygon","coordinates":[[[139.95283,39.94135],[139.94891,39.94147],[139.95911,39.90586],[139.96246,39.90398],[139.96637,39.9105],[139.97063,39.92029],[139.97179,39.92072],[139.99314,39.91559],[140.01734,39.90996],[140.01832,39.90875],[140.01698,39.90474],[140.03855,39.8786],[140.04249,39.87692],[140.04433,39.8781],[140.0481,39.88398],[140.04768,39.88592],[140.05138,39.90179],[140.05426,39.90308],[140.05551,39.90845],[140.05579,39.918],[140.05823,39.91955],[140.05443,39.9204],[140.04851,39.92866],[140.04431,39.93123],[140.04373,39.93545],[140.0365,39.93746],[140.01596,39.92891],[140.0149,39.9283],[139.98858,39.93401],[139.98555,39.93443],[139.95283,39.94135]]]},"properties":{"@id":"relation/1341743","name":"八郎潟調整池","natural":"water","source:ja":"国土数値情報（湖沼データ）平成17年　国土交通省","source_ref":"http://nlftp.mlit.go.jp/ksj/jpgis/datalist/KsjTmplt-C23.html","type":"multipolygon","water":"lagoon"},"id":"relation/1341743"},
{"type":"Feature","geometry":{"type":"Polygon","coordinates":[[[144.19509,44.05611],[144.19652,44.06394],[144.19764,44.06727],[144.19712,44.07537],[144.19439,44.07988],[144.19297,44.08071],[144.1912,44.08484],[144.19164,44.09163],[144.19273,44.09573],[144.18885,44.09764],[144.19116,44.10124],[144.18948,44.10354],[144.18619,44.10402],[144.18567,44.10246],[144.18301,44.1019],[144.18276,44.09895],[144.1817,44.10081],[144.17783,44.10036],[144.17341,44.0985],[144.16531,44.09682],[144.16226,44.09769],[144.15269,44.09698],[144.15197,44.09632],[144.13405,44.09468],[144.12308,44.09279],[144.119,44.09138],[144.11857,44.09035],[144.11354,44.08992],[144.11216,44.0884],[144.11329,44.0806],[144.11267,44.07631],[144.10993,44.07166],[144.10735,44.06536],[144.10843,44.06365],[144.10612,44.06245],[144.10557,44.05295],[144.10224,44.0459],[144.1032,44.04449],[144.10134,44.04231],[144.10162,44.04002],[144.09982,44.03729],[144.10142,44.03592],[144.09805,44.03173],[144.09837,44.02625],[144.09986,44.02425],[144.10212,44.02414],[144.10379,44.02254],[144.10164,44.02003],[144.10715,44.01813],[144.11321,44.01425],[144.11593,44.01641],[144.11954,44.01405],[144.11853,44.01301],[144.12573,44.01205],[144.13049,44.01196],[144.14381,44.01435],[144.15094,44.01639],[144.15365,44.018],[144.16016,44.02045],[144.16911,44.02499],[144.1744,44.0283],[144.18077,44.03308],[144.17664,44.03567],[144.18066,44.03934],[144.18608,44.04757],[144.18846,44.0482],[144.19093,44.04634],[144.19322,44.04944],[144.1929,44.05142],[144.19509,44.05611]]]},"properties":{"@id":"relation/1344683","ele":"0","name":"能取湖","name:en":"Lake Notoro","name:ja":"能取湖","name:ja-Hira":"のとろこ","name:ja-Latn":"Notoro ko","name:ru":"озеро Ноторо","natural":"water","source":"MLIT, Japan","source:ja":"国土数値情報（湖沼データ）平成17年 国土交通省","source_ref":"http://nlftp.mlit.go.jp/ksj/jpgis/datalist/KsjTmplt-C23.html","type":"multipolygon","water":"lake","wikidata":"Q5371411","wikipedia":"ja:能取湖"},"id":"relation/1344683"},
{"type":"Feature","geometry":{"type":"Polygon","coordinates":[[[138.09435,36.03981],[138.10097,36.03874],[138.10075,36.04082],[138.10296,36.04101],[138.10572,36.04413],[138.11206,36.04872],[138.1124,36.0513],[138.11127,36.05549],[138.10885,36.06067],[138.10624,36.06167],[138.10216,36.06604],[138.09752,36.06719],[138.09412,36.06536],[138.08851,36.06486],[138.08594,36.06359],[138.0808,36.06298],[138.07965,36.05904],[138.07601,36.05924],[138.07385,36.0612],[138.0698,36.06004],[138.06723,36.05758],[138.06195,36.05558],[138.05989,36.05556],[138.057,36.05378],[138.05288,36.05307],[138.05609,36.04775],[138.06282,36.04325],[138.06439,36.0401],[138.06914,36.03714],[138.0707,36.0343],[138.07521,36.03192],[138.07878,36.02869],[138.08098,36.02967],[138.08451,36.03348],[138.08823,36.03384],[138.09321,36.03949],[138.09435,36.03981]]]},"properties":{"@id":"relation/2314068","KSJ2:AAC":"20204,20206,20361","KSJ2:AAC_label":"長野県岡谷市,長野県諏訪市,長野県諏訪郡下諏訪町","KSJ2:HOW":"759","KSJ2:LDM":"8","contact:tripadvisor":"1424782","int_name":"Lake Suwa","name":"諏訪湖","name:en":"Lake Suwa","name:fr":"Lac Suwa","name:ja":"諏訪湖","name:ja-Hira":"すわこ","name:ja-Latn":"Suwa-ko","name:ko":"스와호","natural":"water","note":"National-Land Numerical Information (Lake and Pond) 2005, MLIT Japan","note:ja":"国土数値情報（湖沼データ）平成17年 国土交通省","source_ref":"http://nlftp.mlit.go.jp/ksj/jpgis/datalist/KsjTmplt-W09.html","type":"multipolygon","water":"lake","water_type":"fresh","wikidata":"Q1206692","wikimedia_commons":"Category:Lake Suwa","wikipedia":"ja:諏訪湖"},"id":"relation/2314068"},
{"type":"Feature","geometry":{"type":"Polygon","coordinates":[[[137.54879,34.76892],[137.54828,34.77099],[137.55166,34.77039],[137.55377,34.77214],[137.55488,34.77137],[137.56117,34.77273],[137.56423,34.7761],[137.56395,34.78098],[137.56729,34.78454],[137.5659,34.78643],[137.57018,34.78858],[137.57086,34.7914],[137.56931,34.7928],[137.57285,34.79428],[137.57226,34.79535],[137.56773,34.79623],[137.5648,34.79604],[137.56072,34.79292],[137.5593,34.79638],[137.55671,34.79603],[137.55322,34.79883],[137.557,34.80128],[137.5519,34.80197],[137.54882,34.80027],[137.54887,34.79601],[137.54719,34.79455],[137.54921,34.79049],[137.54642,34.79014],[137.54741,34.78803],[137.54366,34.78671],[137.54765,34.78576],[137.54712,34.78288],[137.54297,34.78301],[137.54189,34.78099],[137.54396,34.77946],[137.54433,34.77589],[137.54709,34.77532],[137.54719,34.77092],[137.54792,34.76965],[137.54383,34.77012],[137.53809,34.76917],[137.53483,34.76694],[137.53247,34.76687],[137.53059,34.76469],[137.53173,34.76239],[137.53114,34.76093],[137.52686,34.76314],[137.52645,34.76413],[137.52365,34.7635],[137.51636,34.75881],[137.51387,34.75948],[137.51457,34.75778],[137.51294,34.7562],[137.51511,34.75399],[137.52055,34.75583],[137.5213,34.75466],[137.5256,34.75606],[137.52821,34.75466],[137.5302,34.75529],[137.52992,34.75682],[137.53219,34.75842],[137.53855,34.75759],[137.52943,34.751],[137.5306,34.74844],[137.53266,34.74916],[137.53698,34.74671],[137.53958,34.74039],[137.54014,34.74029],[137.54205,34.73459],[137.54158,34.73309],[137.53845,34.7318],[137.538,34.7328],[137.52868,34.73151],[137.53075,34.72678],[137.52883,34.72518],[137.53666,34.725],[137.541,34.72318],[137.54118,34.72143],[137.54569,34.71828],[137.54731,34.72347],[137.54932,34.72385],[137.55304,34.72292],[137.55766,34.71347],[137.55861,34.71014],[137.56367,34.71097],[137.56613,34.70406],[137.56488,34.70331],[137.56593,34.70065],[137.56405,34.69566],[137.56796,34.69496],[137.58421,34.69497],[137.58429,34.69278],[137.57873,34.69281],[137.57849,34.69083],[137.58375,34.68589],[137.58834,34.68268],[137.59641,34.6799],[137.59654,34.67735],[137.59863,34.67607],[137.5989,34.67946],[137.60432,34.68081],[137.60704,34.68046],[137.60887,34.68219],[137.60703,34.68663],[137.60782,34.68649],[137.6091,34.69118],[137.61356,34.70124],[137.61381,34.70605],[137.61802,34.7053],[137.61979,34.71459],[137.62225,34.71589],[137.62336,34.71833],[137.62149,34.7197],[137.62966,34.72937],[137.63179,34.7282],[137.63385,34.73098],[137.63787,34.7324],[137.63847,34.73173],[137.64287,34.7362],[137.64,34.73966],[137.63534,34.73944],[137.63506,34.74282],[137.63917,34.74741],[137.64387,34.75023],[137.64767,34.7555],[137.65197,34.75731],[137.65154,34.76097],[137.64933,34.76133],[137.64488,34.75906],[137.63832,34.75422],[137.63544,34.75439],[137.63163,34.75329],[137.63059,34.75114],[137.62842,34.75028],[137.62547,34.74309],[137.62575,34.74094],[137.62422,34.73476],[137.62245,34.7321],[137.61905,34.73364],[137.61501,34.73639],[137.61592,34.73729],[137.6119,34.73819],[137.6076,34.73371],[137.60859,34.73289],[137.60817,34.73001],[137.60628,34.72503],[137.59962,34.72095],[137.59611,34.72032],[137.59276,34.72114],[137.58818,34.72448],[137.58818,34.72851],[137.59018,34.73548],[137.5929,34.74198],[137.6011,34.75446],[137.60693,34.75742],[137.60989,34.76173],[137.61155,34.76216],[137.61224,34.76681],[137.61018,34.76816],[137.61335,34.77029],[137.61564,34.76972],[137.6135,34.76794],[137.61801,34.76513],[137.61766,34.7632],[137.62082,34.76298],[137.62799,34.76484],[137.62844,34.7683],[137.62097,34.76785],[137.61715,34.76893],[137.61732,34.77363],[137.61608,34.77529],[137.61732,34.77636],[137.62047,34.77411],[137.62389,34.77369],[137.62586,34.77437],[137.62404,34.77722],[137.62636,34.77942],[137.63104,34.78146],[137.63308,34.78309],[137.63501,34.78258],[137.63804,34.78356],[137.64202,34.78339],[137.64326,34.78629],[137.64023,34.78671],[137.64004,34.78835],[137.64442,34.78937],[137.64583,34.7909],[137.64537,34.79353],[137.64111,34.79448],[137.63421,34.79712],[137.63041,34.79783],[137.62979,34.80028],[137.62607,34.80168],[137.62322,34.80102],[137.62322,34.79892],[137.62116,34.80141],[137.61896,34.79872],[137.62081,34.79518],[137.61916,34.79347],[137.61516,34.79251],[137.6162,34.78964],[137.61339,34.78905],[137.61521,34.78739],[137.61583,34.78404],[137.61345,34.78287],[137.61407,34.78069],[137.61206,34.7813],[137.60527,34.78035],[137.60672,34.78236],[137.60651,34.78503],[137.60334,34.7876],[137.59684,34.78841],[137.59709,34.78602],[137.59334,34.78421],[137.58756,34.78532],[137.58312,34.785],[137.5796,34.78174],[137.57518,34.78205],[137.57161,34.78113],[137.56968,34.77788],[137.56884,34.77297],[137.56924,34.76973],[137.5675,34.76764],[137.56472,34.76638],[137.56181,34.76163],[137.55855,34.7607],[137.55732,34.76192],[137.55811,34.76402],[137.55606,34.7664],[137.55284,34.76741],[137.55008,34.767],[137.54879,34.76892]],[[137.59057,34.69522],[137.59469,34.69444],[137.5959,34.69742],[137.60043,34.69551],[137.59797,34.69163],[137.59681,34.69122],[137.58999,34.6931],[137.59057,34.69522]],[[137.56622,34.69546],[137.56556,34.69616],[137.56723,34.70105],[137.5683,34.70156],[137.57436,34.70148],[137.57556,34.70053],[137.57597,34.69589],[137.57435,34.69608],[137.57441,34.70095],[137.57248,34.70096],[137.57258,34.69569],[137.56622,34.69546]],[[137.60582,34.69337],[137.6067,34.69289],[137.60514,34.69033],[137.60362,34.69081],[137.60582,34.69337]],[[137.5982,34.68591],[137.60103,34.68463],[137.60024,34.68384],[137.59363,34.68572],[137.5982,34.68591]],[[137.58438,34.71527],[137.58761,34.72456],[137.59276,34.72064],[137.58997,34.71119],[137.58371,34.71066],[137.58289,34.71152],[137.58438,34.71527]],[[137.61855,34.70915],[137.61746,34.70577],[137.61384,34.70647],[137.6139,34.70814],[137.61688,34.71414],[137.61915,34.71319],[137.61855,34.70915]],[[137.5904,34.71167],[137.59295,34.72031],[137.59776,34.71973],[137.59857,34.71216],[137.59478,34.71127],[137.5904,34.71167]],[[137.5997,34.69019],[137.60024,34.69168],[137.60635,34.6892],[137.60484,34.68735],[137.5997,34.69019]],[[137.61014,34.70734],[137.61072,34.70198],[137.61014,34.70223],[137.61014,34.70734]],[[137.60852,34.71831],[137.60773,34.71791],[137.6029,34.7226],[137.60551,34.72415],[137.61064,34.71997],[137.60852,34.71831]],[[137.60396,34.6975],[137.60602,34.70093],[137.61041,34.69914],[137.60844,34.69554],[137.60396,34.6975]],[[137.60102,34.69669],[137.60049,34.696],[137.59615,34.6978],[137.59703,34.69931],[137.60148,34.69742],[137.60102,34.69669]],[[137.60695,34.69333],[137.60223,34.69528],[137.60313,34.69681],[137.60785,34.69483],[137.60695,34.69333]],[[137.60401,34.69159],[137.60356,34.69081],[137.60029,34.69181],[137.60196,34.69489],[137.60519,34.69355],[137.60401,34.69159]],[[137.59887,34.71236],[137.5982,34.71983],[137.60268,34.72231],[137.60749,34.71764],[137.60424,34.71247],[137.59887,34.71236]]]},"properties":{"@id":"relation/2344533","name":"浜名湖","name:en":"Lake Hamana","name:etymology":"浜名郡","name:etymology:wikidata":"Q1042370","name:fr":"Lac Hamana","name:ja-Hira":"はまなこ","name:ja-Latn":"Hamana-ko","name:zh":"濱名湖","name:zh-Hans":"滨名湖","name:zh-Hant":"濱名湖","natural":"water","salt":"yes","type":"multipolygon","water":"lake","wikidata":"Q1150952","wikimedia_commons":"Category:Lake Hamana","wikipedia":"ja:浜名湖"},"id":"relation/2344533"},
{"type":"Feature","geometry":{"type":"Polygon","coordinates":[[[132.90238,35.40748],[132.90304,35.40672],[132.90797,35.41111],[132.9124,35.41193],[132.91517,35.41351],[132.92068,35.41191],[132.92465,35.41373],[132.92913,35.41751],[132.93341,35.41665],[132.93659,35.41853],[132.9402,35.41913],[132.942,35.4224],[132.94394,35.42334],[132.94614,35.42165],[132.9547,35.42161],[132.95829,35.42449],[132.96176,35.42335],[132.97412,35.42369],[132.97802,35.42601],[132.98056,35.42654],[132.98295,35.43123],[132.98588,35.43217],[132.98893,35.43093],[132.99822,35.42973],[133.00426,35.43143],[133.00664,35.43327],[133.00893,35.43828],[133.01343,35.43742],[133.01803,35.43487],[133.0241,35.43551],[133.02636,35.43646],[133.03099,35.43701],[133.0348,35.43679],[133.03722,35.43801],[133.04132,35.44138],[133.04495,35.44573],[133.0514,35.45975],[133.05366,35.4606],[133.05248,35.46496],[133.05392,35.46617],[133.05273,35.46826],[133.04835,35.4669],[133.04455,35.46488],[133.03898,35.46459],[133.03479,35.46629],[133.03128,35.46917],[133.02783,35.47113],[133.02282,35.47308],[133.01816,35.4723],[133.01365,35.47292],[133.00795,35.47531],[133.0035,35.47543],[133.002,35.47458],[132.99819,35.47457],[132.99501,35.47362],[132.99498,35.47486],[132.99005,35.47466],[132.97555,35.47868],[132.97273,35.4804],[132.96998,35.47984],[132.96707,35.48038],[132.9637,35.47981],[132.95548,35.47649],[132.95139,35.47345],[132.94844,35.47504],[132.94255,35.47453],[132.9363,35.47223],[132.93336,35.47226],[132.92865,35.47087],[132.92539,35.46918],[132.92006,35.46499],[132.91651,35.46574],[132.90981,35.46386],[132.90438,35.4608],[132.90336,35.45947],[132.89955,35.46127],[132.89563,35.46081],[132.88688,35.46164],[132.88495,35.46002],[132.88177,35.46074],[132.87836,35.46024],[132.87239,35.45822],[132.87015,35.45477],[132.86729,35.45371],[132.86672,35.45108],[132.86799,35.44499],[132.87034,35.44517],[132.87066,35.44388],[132.87653,35.44492],[132.87736,35.44184],[132.88071,35.4364],[132.87909,35.43432],[132.87798,35.42904],[132.88108,35.42807],[132.88174,35.42602],[132.88434,35.42472],[132.88602,35.41984],[132.88409,35.41753],[132.87646,35.41562],[132.86995,35.41485],[132.87006,35.41406],[132.87776,35.41398],[132.88413,35.41537],[132.89255,35.41819],[132.89524,35.4174],[132.90011,35.41968],[132.90129,35.41805],[132.89688,35.4159],[132.89579,35.41283],[132.89782,35.41209],[132.90238,35.40748]]]},"properties":{"@id":"relation/2416328","name":"宍道湖","name:bg":"Шинджи","name:de":"Shinji-See","name:en":"Lake Shinji","name:fr":"Lac Shinji","name:ja":"宍道湖","name:ja-Hira":"しんじこ","name:ja-Latn":"Shinji-ko","name:ko":"신지호","name:zh":"宍道湖","natural":"water","type":"multipolygon","water":"lake","wikidata":"Q1151248","wikimedia_commons":"Category:Lake Shinji","wikipedia":"ja:宍道湖"},"id":"relation/2416328"},
{"type":"Feature","geometry":{"type":"Polygon","coordinates":[[[133.13714,35.48358],[133.1398,35.4826],[133.14407,35.47836],[133.14323,35.47465],[133.14054,35.47235],[133.13829,35.469],[133.13619,35.4692],[133.13391,35.46762],[133.12772,35.46585],[133.12603,35.462],[133.12455,35.46094],[133.12602,35.45465],[133.12609,35.45088],[133.13803,35.45299],[133.13867,35.45098],[133.14253,35.44987],[133.14399,35.45026],[133.15399,35.44895],[133.15656,35.44829],[133.1591,35.4458],[133.16397,35.44701],[133.17148,35.44037],[133.17341,35.44011],[133.17404,35.43733],[133.17602,35.43564],[133.18341,35.43162],[133.18637,35.43146],[133.1897,35.43275],[133.19431,35.43315],[133.19831,35.43512],[133.20146,35.4416],[133.20447,35.44543],[133.2118,35.4483],[133.21659,35.44465],[133.21888,35.44831],[133.21843,35.45256],[133.219,35.45433],[133.22169,35.4515],[133.22262,35.45267],[133.22121,35.4562],[133.22822,35.45041],[133.23795,35.449],[133.24091,35.44332],[133.24405,35.44453],[133.24792,35.4436],[133.25381,35.44369],[133.25401,35.43787],[133.2552,35.43655],[133.25548,35.43361],[133.2595,35.4297],[133.26207,35.43147],[133.25865,35.43306],[133.25897,35.43463],[133.26156,35.4348],[133.26365,35.43634],[133.26482,35.43574],[133.26899,35.4364],[133.26994,35.43214],[133.27178,35.43122],[133.2722,35.43279],[133.27521,35.43524],[133.27897,35.4343],[133.27924,35.43268],[133.28438,35.43068],[133.28581,35.43134],[133.28718,35.4298],[133.28905,35.43021],[133.29275,35.42779],[133.29652,35.42943],[133.29823,35.42889],[133.3001,35.43208],[133.30114,35.42853],[133.3031,35.42653],[133.30926,35.42294],[133.31585,35.41636],[133.31623,35.41435],[133.3139,35.41218],[133.3113,35.41178],[133.30609,35.4127],[133.30118,35.41528],[133.29628,35.41459],[133.29422,35.41503],[133.29122,35.41719],[133.29518,35.41311],[133.30018,35.41501],[133.30559,35.41194],[133.31177,35.41095],[133.32123,35.41325],[133.31777,35.41606],[133.32061,35.42058],[133.32231,35.42064],[133.32518,35.42255],[133.32155,35.42354],[133.32001,35.42575],[133.32114,35.43062],[133.32235,35.43085],[133.3211,35.43362],[133.31866,35.43395],[133.31662,35.43137],[133.31146,35.43374],[133.29937,35.43717],[133.30028,35.43832],[133.29682,35.43935],[133.29384,35.44124],[133.29367,35.44247],[133.28558,35.44556],[133.28069,35.44943],[133.2794,35.44843],[133.2734,35.45213],[133.2747,35.45295],[133.26603,35.45885],[133.26391,35.45942],[133.26614,35.46107],[133.2623,35.46445],[133.26113,35.46663],[133.25379,35.47297],[133.25125,35.4743],[133.25095,35.47412],[133.24855,35.47684],[133.24743,35.47602],[133.24179,35.48237],[133.2422,35.48289],[133.23843,35.48592],[133.23606,35.48591],[133.23227,35.48897],[133.22651,35.48668],[133.22467,35.48665],[133.22449,35.49003],[133.23063,35.49247],[133.23017,35.49525],[133.22661,35.49762],[133.22475,35.50026],[133.22318,35.50014],[133.21907,35.50647],[133.2169,35.50831],[133.20844,35.51263],[133.2047,35.51578],[133.20094,35.52228],[133.20293,35.5214],[133.2026,35.52493],[133.20037,35.52433],[133.19885,35.52643],[133.19913,35.52996],[133.20411,35.53198],[133.2031,35.53425],[133.19884,35.53627],[133.19576,35.53355],[133.19458,35.53413],[133.1955,35.53059],[133.19154,35.5269],[133.18562,35.52776],[133.18415,35.53038],[133.18341,35.53443],[133.18032,35.5377],[133.17689,35.53618],[133.17956,35.53417],[133.17858,35.53302],[133.18077,35.53189],[133.17856,35.5307],[133.17728,35.53164],[133.17694,35.53432],[133.17211,35.5332],[133.17374,35.53522],[133.16272,35.53296],[133.16183,35.53628],[133.16022,35.53777],[133.15689,35.53823],[133.15229,35.53537],[133.15309,35.53077],[133.15415,35.53206],[133.1544,35.53615],[133.15837,35.53739],[133.16037,35.53658],[133.16114,35.53556],[133.16141,35.53266],[133.16287,35.53182],[133.16359,35.53273],[133.16415,35.53123],[133.17959,35.52471],[133.17965,35.52429],[133.1643,35.53063],[133.162,35.5307],[133.16124,35.53247],[133.16036,35.53626],[133.15798,35.53726],[133.15454,35.53594],[133.15435,35.53172],[133.15222,35.52836],[133.15044,35.52766],[133.14859,35.52408],[133.14534,35.52203],[133.14947,35.52057],[133.14777,35.52023],[133.14546,35.52187],[133.14457,35.51932],[133.14198,35.52051],[133.13927,35.52003],[133.13682,35.51655],[133.13739,35.51557],[133.13247,35.51438],[133.13046,35.51058],[133.13087,35.50275],[133.13428,35.49935],[133.13329,35.49744],[133.1364,35.49511],[133.13735,35.49201],[133.13611,35.49176],[133.13215,35.48809],[133.13397,35.48561],[133.13714,35.48358]],[[133.29385,35.43877],[133.29501,35.44035],[133.29672,35.43929],[133.29974,35.43831],[133.29926,35.4372],[133.29385,35.43877]],[[133.24156,35.48225],[133.24867,35.47464],[133.24675,35.47333],[133.23972,35.48042],[133.24156,35.48225]],[[133.25046,35.4744],[133.2509,35.47388],[133.25123,35.47408],[133.25361,35.47287],[133.26096,35.46653],[133.26213,35.46436],[133.2658,35.46105],[133.26363,35.45956],[133.25714,35.46555],[133.25724,35.46665],[133.25327,35.47026],[133.25025,35.47021],[133.24778,35.47247],[133.25046,35.4744]],[[133.26145,35.45626],[133.26282,35.45891],[133.26665,35.45797],[133.27273,35.45377],[133.27318,35.45187],[133.27926,35.44815],[133.28144,35.44811],[133.28466,35.44558],[133.29208,35.4424],[133.29397,35.44017],[133.29247,35.43906],[133.27294,35.44579],[133.27105,35.44673],[133.26076,35.45353],[133.26145,35.45626]],[[133.20928,35.51118],[133.20992,35.51176],[133.21866,35.50643],[133.22571,35.49635],[133.22204,35.49232],[133.2208,35.49224],[133.2161,35.49568],[133.2084,35.51028],[133.20928,35.51118]],[[133.18736,35.51769],[133.19569,35.52115],[133.20182,35.51062],[133.19009,35.50684],[133.18858,35.50763],[133.18648,35.50367],[133.18905,35.50322],[133.19069,35.49886],[133.18907,35.49883],[133.1897,35.49544],[133.18571,35.49245],[133.18751,35.49135],[133.18594,35.4895],[133.18754,35.48653],[133.18623,35.48551],[133.18391,35.48643],[133.18033,35.48557],[133.17959,35.48644],[133.17347,35.48622],[133.17129,35.48465],[133.17114,35.48628],[133.16593,35.49052],[133.16539,35.4891],[133.16247,35.48834],[133.14656,35.47996],[133.14772,35.4811],[133.16071,35.4879],[133.16178,35.49047],[133.15784,35.49406],[133.15683,35.49673],[133.15887,35.50057],[133.15877,35.50502],[133.16042,35.50702],[133.16353,35.50795],[133.16777,35.50681],[133.17497,35.50403],[133.18117,35.50333],[133.18672,35.50531],[133.18917,35.50987],[133.18981,35.51389],[133.18736,35.51769]]]},"properties":{"@id":"relation/2420244","alt_name:en":"Inland Sea","alt_name:fr":"Mer intérieure","name":"中海","name:en":"Nakaumi","name:fr":"Nakaumi","name:ja":"中海","name:ja-Hira":"なかうみ","name:ja-Latn":"Nakaumi","natural":"water","note":"異なる地物が接触しないよう注意;平均満潮値","salt":"yes","type":"multipolygon","water":"lake","wikidata":"Q1077275","wikimedia_commons":"Category:Nakaumi","wikipedia":"ja:中海"},"id":"relation/2420244"},
{"type":"Feature","geometry":{"type":"Polygon","coordinates":[[[140.81558,42.62529],[140.81085,42.62315],[140.80901,42.61886],[140.80568,42.61915],[140.80233,42.61504],[140.80322,42.6113],[140.80002,42.61124],[140.79582,42.60855],[140.79313,42.60827],[140.79068,42.60657],[140.78911,42.60406],[140.78994,42.60131],[140.78887,42.59736],[140.7928,42.59261],[140.79235,42.59145],[140.79451,42.58651],[140.79624,42.58068],[140.79854,42.57702],[140.79812,42.57533],[140.79917,42.57141],[140.80146,42.57032],[140.80548,42.57131],[140.8059,42.56846],[140.80915,42.56608],[140.81238,42.56587],[140.82532,42.56663],[140.82861,42.56521],[140.83369,42.56606],[140.8444,42.56394],[140.84711,42.56215],[140.85357,42.55965],[140.85728,42.55672],[140.86202,42.55771],[140.87494,42.55781],[140.87754,42.56036],[140.87798,42.56344],[140.8805,42.56508],[140.88491,42.56315],[140.88642,42.56544],[140.88812,42.5655],[140.88943,42.56899],[140.89164,42.56881],[140.89318,42.57189],[140.90179,42.57251],[140.90492,42.57695],[140.90656,42.5821],[140.90857,42.58224],[140.914,42.58618],[140.91792,42.59115],[140.91789,42.5926],[140.9224,42.59795],[140.92278,42.60275],[140.92226,42.60805],[140.91919,42.6115],[140.91596,42.61195],[140.91457,42.61536],[140.91171,42.61877],[140.90473,42.62127],[140.90332,42.6238],[140.90378,42.62592],[140.89781,42.6321],[140.89527,42.63347],[140.89054,42.63467],[140.88976,42.63659],[140.88509,42.6407],[140.88168,42.64075],[140.87792,42.64307],[140.87456,42.64346],[140.87236,42.64559],[140.86742,42.64655],[140.86511,42.64576],[140.8623,42.64207],[140.857,42.63962],[140.85057,42.63978],[140.84629,42.64211],[140.84428,42.64491],[140.83925,42.64557],[140.83814,42.64693],[140.83437,42.6469],[140.82928,42.64433],[140.82558,42.64116],[140.82553,42.63889],[140.82323,42.63814],[140.81968,42.63502],[140.81871,42.63309],[140.82036,42.63174],[140.819,42.62701],[140.8173,42.62731],[140.81558,42.62529]],[[140.83805,42.58995],[140.83816,42.59001],[140.83848,42.58981],[140.83829,42.58977],[140.83805,42.58995]],[[140.83805,42.58995],[140.83829,42.58977],[140.83506,42.58762],[140.83231,42.58823],[140.83573,42.59008],[140.83805,42.58995]],[[140.86422,42.61101],[140.86677,42.6085],[140.86442,42.60646],[140.86417,42.60437],[140.86942,42.60118],[140.86913,42.5981],[140.86706,42.59568],[140.86672,42.59297],[140.86211,42.5915],[140.85984,42.59262],[140.85366,42.59102],[140.84952,42.59278],[140.84605,42.59533],[140.84318,42.59323],[140.84119,42.59643],[140.83635,42.59988],[140.83535,42.60528],[140.83803,42.6073],[140.84141,42.60857],[140.84557,42.61127],[140.84821,42.61099],[140.85046,42.61292],[140.85562,42.6127],[140.85832,42.6105],[140.86155,42.61008],[140.86422,42.61101]],[[140.8527,42.58772],[140.856,42.58712],[140.85398,42.58635],[140.8527,42.58772]],[[140.83816,42.59001],[140.83851,42.59326],[140.84231,42.59273],[140.8429,42.58967],[140.83848,42.58981],[140.83816,42.59001]]]},"properties":{"@id":"relation/7658552","KSJ2:AAC":"01572,01573,01575","KSJ2:AAC_label":"北海道虻田郡虻田町,北海道虻田郡洞爺村,北海道有珠郡壮瞥町","KSJ2:HOW":"84","KSJ2:LDM":"180","ele":"84","name":"洞爺湖","name:en":"Lake Toya","name:ja":"洞爺湖","name:ja-Hira":"とうやこ","name:ja-Latn":"Tōya-ko","natural":"water","source_ref":"http://nlftp.mlit.go.jp/ksj/jpgis/datalist/KsjTmplt-W09.html","type":"multipolygon","water":"lake","water_type":"fresh","wikidata":"Q1323974","wikipedia":"ja:洞爺湖"},"id":"relation/7658552"},
{"type":"Feature","geometry":{"type":"Polygon","coordinates":[[[140.67563,39.70224],[140.68295,39.70149],[140.68564,39.70378],[140.68833,39.71059],[140.68898,39.71538],[140.69052,39.71815],[140.69296,39.71926],[140.69765,39.7249],[140.6994,39.72556],[140.69921,39.73037],[140.6958,39.73613],[140.69179,39.73834],[140.68902,39.7407],[140.68246,39.74504],[140.67526,39.74835],[140.67028,39.74784],[140.66436,39.74984],[140.66168,39.74944],[140.65136,39.75137],[140.64422,39.75129],[140.63974,39.74909],[140.63628,39.74154],[140.63634,39.73978],[140.63321,39.73738],[140.63168,39.73169],[140.63237,39.72957],[140.62936,39.72613],[140.62823,39.72254],[140.62913,39.71946],[140.632,39.7156],[140.63482,39.71377],[140.63461,39.71143],[140.63685,39.7107],[140.64095,39.70648],[140.64149,39.705],[140.64419,39.70374],[140.64572,39.70148],[140.64903,39.69871],[140.65217,39.69794],[140.66058,39.69935],[140.66517,39.70222],[140.6688,39.70368],[140.67563,39.70224]]]},"properties":{"@id":"relation/10387454","int_name":"Tazawa-ko","max_depth":"423.4","name":"田沢湖","name:de":"Tazawa-See","name:en":"Lake Tazawa","name:fr":"Lac Tazawa","name:ja":"田沢湖","name:ja-Hira":"たざわこ","name:ja-Latn":"Tazawa-ko","natural":"water","source":"MLIT, Japan","source:ja":"国土数値情報（湖沼データ）平成17年　国土交通省","source_ref":"http://nlftp.mlit.go.jp/ksj/jpgis/datalist/KsjTmplt-C23.html","type":"multipolygon","water":"lake","wikidata":"Q174309","wikimedia_commons":"Category:Lake Tazawa","wikipedia":"ja:田沢湖"},"id":"relation/10387454"},
{"type":"Feature","geometry":{"type":"Polygon","coordinates":[[[145.50358,43.25038],[145.51263,43.24624],[145.51528,43.23791],[145.51002,43.23596],[145.50707,43.23239],[145.50674,43.22721],[145.50852,43.22513],[145.50543,43.21897],[145.50772,43.2224],[145.50982,43.22402],[145.50883,43.22744],[145.51736,43.22786],[145.519,43.22848],[145.52197,43.23168],[145.5221,43.23421],[145.5243,43.23704],[145.53136,43.24187],[145.53209,43.24324],[145.5293,43.2445],[145.52891,43.2462],[145.52406,43.25214],[145.52375,43.25622],[145.51522,43.26311],[145.51167,43.2688],[145.50841,43.26973],[145.50475,43.26827],[145.49837,43.26684],[145.49641,43.26539],[145.49324,43.26556],[145.49313,43.26663],[145.48649,43.26571],[145.48566,43.26365],[145.48828,43.26094],[145.49211,43.25947],[145.49686,43.26008],[145.50093,43.25903],[145.50827,43.25437],[145.50737,43.25164],[145.50358,43.25038]]]},"properties":{"@id":"relation/16244210","ele":"0","name":"温根沼","name:en":"Onneto","name:ja":"温根沼","name:ja-Hira":"おんねとう","name:ja-Latn":"Onnetou","natural":"water","type":"multipolygon","water":"lagoon","wikidata":"Q11536266","wikipedia":"ja:温根沼"},"id":"relation/16244210"},
{"type":"Feature","geometry":{"type":"Polygon","coordinates":[[[144.85212,43.0647],[144.84918,43.05914],[144.85043,43.05803],[144.84891,43.05659],[144.85356,43.05287],[144.8572,43.05148],[144.85688,43.04875],[144.85405,43.04884],[144.8517,43.04546],[144.85413,43.04391],[144.85504,43.04168],[144.85832,43.03846],[144.85952,43.03393],[144.86447,43.02948],[144.87065,43.03037],[144.87328,43.03009],[144.87981,43.02513],[144.87986,43.0238],[144.883,43.02172],[144.89044,43.01987],[144.89179,43.02004],[144.89685,43.01712],[144.89917,43.01678],[144.90506,43.01737],[144.90973,43.0188],[144.9147,43.02263],[144.91569,43.0245],[144.91507,43.02776],[144.91818,43.02903],[144.92292,43.02874],[144.92599,43.02671],[144.93265,43.0257],[144.93582,43.03007],[144.93394,43.03589],[144.93485,43.03873],[144.94168,43.04158],[144.94352,43.04336],[144.93889,43.04945],[144.93889,43.05121],[144.93662,43.05216],[144.93347,43.05499],[144.92913,43.05599],[144.9211,43.06237],[144.91885,43.06374],[144.9109,43.06689],[144.89866,43.06956],[144.8924,43.06996],[144.88326,43.06872],[144.87596,43.07045],[144.87126,43.07221],[144.867,43.07253],[144.86419,43.07177],[144.86351,43.07421],[144.85374,43.0753],[144.85124,43.07356],[144.84986,43.07001],[144.85212,43.0647]]]},"properties":{"@id":"relation/18080625","ele":"0","name":"厚岸湖","name:en":"Lake Akkeshi","name:ja":"厚岸湖","name:ja-Hira":"あっけしこ","name:ja-Latn":"Akkeshi ko","natural":"water","salt":"yes","source:ja":"国土数値情報（湖沼データ）平成17年　国土交通省","source_ref":"http://nlftp.mlit.go.jp/ksj/jpgis/datalist/KsjTmplt-C23.html","type":"multipolygon","water":"lagoon","wikidata":"Q847282","wikipedia":"ja:厚岸湖"},"id":"relation/18080625"},
{"type":"Feature","geometry":{"type":"Polygon","coordinates":[[[140.57343,36.02857],[140.5724,36.03122],[140.5754,36.03497],[140.57527,36.03886],[140.56994,36.0426],[140.56947,36.04426],[140.57096,36.04708],[140.57118,36.05006],[140.56895,36.05381],[140.56316,36.05613],[140.55886,36.05846],[140.5605,36.06223],[140.5578,36.06559],[140.55655,36.06989],[140.55433,36.07134],[140.55149,36.07171],[140.54953,36.0732],[140.54845,36.07579],[140.5428,36.07964],[140.54112,36.08289],[140.54274,36.08556],[140.54172,36.09014],[140.54026,36.09331],[140.53348,36.09495],[140.53743,36.09924],[140.53649,36.10313],[140.53426,36.10646],[140.53394,36.10838],[140.53117,36.10994],[140.53401,36.11266],[140.53391,36.11728],[140.53034,36.11963],[140.53197,36.12256],[140.52842,36.1244],[140.5269,36.1324],[140.51727,36.14095],[140.52074,36.13287],[140.51969,36.1306],[140.52249,36.12842],[140.52007,36.1258],[140.51974,36.12248],[140.52119,36.12034],[140.52542,36.11721],[140.5282,36.11348],[140.526,36.11199],[140.52371,36.10846],[140.52358,36.10645],[140.53017,36.10243],[140.5265,36.10085],[140.52167,36.09512],[140.53246,36.09043],[140.53591,36.08702],[140.53832,36.08593],[140.53706,36.08383],[140.5362,36.07866],[140.53792,36.07513],[140.53734,36.07258],[140.53575,36.0717],[140.53139,36.0726],[140.52893,36.07229],[140.52836,36.0691],[140.53179,36.06804],[140.53655,36.06409],[140.54544,36.06192],[140.54782,36.06077],[140.54842,36.05825],[140.54688,36.05674],[140.54417,36.05613],[140.54212,36.05449],[140.54328,36.05253],[140.54834,36.05178],[140.55214,36.04815],[140.55644,36.04667],[140.55675,36.04553],[140.55316,36.03902],[140.55122,36.03804],[140.54588,36.03982],[140.53873,36.03939],[140.53925,36.03774],[140.54179,36.0357],[140.55099,36.03153],[140.55573,36.03164],[140.55942,36.03029],[140.56021,36.02826],[140.55636,36.02464],[140.55562,36.01998],[140.55433,36.0178],[140.54718,36.01205],[140.54315,36.01152],[140.53768,36.01483],[140.53704,36.01275],[140.54044,36.01075],[140.54354,36.00723],[140.54666,36.00537],[140.5533,36.00501],[140.56313,36.00016],[140.56382,35.99902],[140.56917,35.99556],[140.57434,35.99035],[140.57853,35.98788],[140.58203,35.98401],[140.58776,35.98198],[140.58914,35.98004],[140.58634,35.98048],[140.58253,35.9798],[140.57969,35.97851],[140.57872,35.97654],[140.58509,35.9674],[140.58844,35.96177],[140.59101,35.96076],[140.59898,35.9594],[140.60267,35.95773],[140.61014,35.96305],[140.61016,35.96431],[140.60759,35.9669],[140.60246,35.96982],[140.59905,35.97039],[140.59531,35.9694],[140.60169,35.97904],[140.60501,35.98284],[140.60352,35.98591],[140.60014,35.98796],[140.59883,35.99058],[140.59931,35.99283],[140.59547,35.99781],[140.5968,36.00325],[140.59346,36.00631],[140.58079,36.01037],[140.58145,36.01423],[140.579,36.01898],[140.58041,36.02142],[140.58326,36.02169],[140.58588,36.02369],[140.58538,36.02597],[140.58354,36.02734],[140.57958,36.02616],[140.57625,36.02687],[140.57343,36.02857]]]},"properties":{"@id":"relation/19725922","name":"北浦","name:en":"Lake Kitaura","name:ja":"北浦","name:ja-Hira":"きたうら","natural":"water","source":"Bing;PGS & Bing;PGS","type":"multipolygon","water":"lake","wikidata":"Q56636334"},"id":"relation/19725922"},
{"type":"Feature","geometry":{"type":"Polygon","coordinates":[[[141.33103,42.80341],[141.3282,42.80244],[141.32589,42.79829],[141.32389,42.79683],[141.32362,42.79482],[141.31708,42.79148],[141.31322,42.78748],[141.3142,42.78425],[141.30999,42.77835],[141.30476,42.77651],[141.30317,42.77344],[141.30474,42.77073],[141.30272,42.76862],[141.29659,42.76854],[141.29447,42.7672],[141.28999,42.76851],[141.28245,42.76573],[141.2823,42.76929],[141.2809,42.77054],[141.27893,42.76991],[141.27427,42.77121],[141.26814,42.76967],[141.26443,42.77032],[141.26035,42.7682],[141.25764,42.76594],[141.2547,42.76138],[141.25393,42.75508],[141.25141,42.7521],[141.25322,42.74641],[141.25822,42.74073],[141.25862,42.73739],[141.26189,42.7352],[141.2669,42.72818],[141.26237,42.72308],[141.26402,42.72002],[141.2687,42.71683],[141.27437,42.714],[141.27671,42.71397],[141.27952,42.71247],[141.28539,42.71092],[141.28656,42.70918],[141.2925,42.70514],[141.29638,42.70395],[141.30271,42.70437],[141.30838,42.70821],[141.31233,42.7099],[141.31852,42.7157],[141.32232,42.7181],[141.32663,42.71892],[141.32969,42.72243],[141.33236,42.72703],[141.33489,42.72816],[141.33812,42.73206],[141.34282,42.73445],[141.34971,42.73584],[141.35238,42.73749],[141.35871,42.7383],[141.36369,42.73689],[141.37039,42.73743],[141.37397,42.73581],[141.37609,42.73641],[141.38128,42.74021],[141.38555,42.74148],[141.39087,42.74104],[141.3965,42.74162],[141.40203,42.74298],[141.4065,42.74313],[141.40797,42.74404],[141.40847,42.74726],[141.40426,42.751],[141.40278,42.75416],[141.40287,42.75685],[141.40164,42.75868],[141.40163,42.76468],[141.40291,42.76769],[141.40334,42.77142],[141.40084,42.77488],[141.39812,42.77682],[141.39473,42.77707],[141.39283,42.77912],[141.38769,42.78082],[141.38159,42.78513],[141.37783,42.78695],[141.36912,42.79298],[141.35955,42.79805],[141.35051,42.80156],[141.34432,42.80321],[141.33438,42.80391],[141.33103,42.80341]]]},"properties":{"@id":"way/41889876","ele":"248","name":"支笏湖","name:en":"Lake Shikotsu","name:ja":"支笏湖","name:ja-Hira":"しこつこ","name:ja_rm":"Shikotsuko","natural":"water","note":"National-Land Numerical Information (Lake and Pond) 2005, MLIT Japan","note:ja":"国土数値情報（湖沼データ）平成17年 国土交通省","source":"KSJ2","source_ref":"http://nlftp.mlit.go.jp/ksj/jpgis/datalist/KsjTmplt-W09.html","water":"lake","water_type":"fresh","wikidata":"Q1196295","wikipedia":"ja:支笏湖"},"id":"way/41889876"}
]}